{
  "tiles": [
    "https://tiles-a.basemaps.cartocdn.com/vectortiles/carto.streets/v1/{z}/{x}/{y}.mvt",
    "https://tiles-b.basemaps.cartocdn.com/vectortiles/carto.streets/v1/{z}/{x}/{y}.mvt",
    "https://tiles-c.basemaps.cartocdn.com/vectortiles/carto.streets/v1/{z}/{x}/{y}.mvt",
    "https://tiles-d.basemaps.cartocdn.com/vectortiles/carto.streets/v1/{z}/{x}/{y}.mvt"
  ],
  "name": "CARTO vector tiles",
  "format": "pbf",
  "id": "carto.streets/v1",
  "attribution": "(modified) &copy; <a href=\"https://carto.com/about-carto/\" target=\"_blank\" rel=\"noopener\">CARTO</a>, &copy; <a href=\"http://www.openstreetmap.org/about/\" target=\"_blank\">OpenStreetMap</a> contributors",
  "center": [-12.2168, 28.6135, 4],
  "description": "OpenStreetMap data packaged by OpenMapTiles",
  "maxzoom": 14,
  "minzoom": 0,
  "vector_layers": [
    {
      "description": "",
      "fields": {
        "brunnel": "String",
        "class": "String",
        "intermittent": "Number"
      },
      "id": "water",
      "maxzoom": 14,
      "minzoom": 0
    },
    {
      "description": "",
      "fields": {
        "brunnel": "String",
        "class": "String",
        "intermittent": "Number",
        "name": "String",
        "name:am": "String",
        "name:ar": "String",
        "name:az": "String",
        "name:be": "String",
        "name:bg": "String",
        "name:br": "String",
        "name:bs": "String",
        "name:ca": "String",
        "name:co": "String",
        "name:cs": "String",
        "name:cy": "String",
        "name:da": "String",
        "name:de": "String",
        "name:el": "String",
        "name:en": "String",
        "name:eo": "String",
        "name:es": "String",
        "name:et": "String",
        "name:eu": "String",
        "name:fi": "String",
        "name:fr": "String",
        "name:fy": "String",
        "name:ga": "String",
        "name:gd": "String",
        "name:he": "String",
        "name:hr": "String",
        "name:hu": "String",
        "name:hy": "String",
        "name:id": "String",
        "name:is": "String",
        "name:it": "String",
        "name:ja": "String",
        "name:ja_kana": "String",
        "name:ja_rm": "String",
        "name:ka": "String",
        "name:kk": "String",
        "name:kn": "String",
        "name:ko": "String",
        "name:ko_rm": "String",
        "name:ku": "String",
        "name:la": "String",
        "name:latin": "String",
        "name:lb": "String",
        "name:lt": "String",
        "name:lv": "String",
        "name:mk": "String",
        "name:ml": "String",
        "name:mt": "String",
        "name:nl": "String",
        "name:no": "String",
        "name:nonlatin": "String",
        "name:oc": "String",
        "name:pl": "String",
        "name:pt": "String",
        "name:rm": "String",
        "name:ro": "String",
        "name:ru": "String",
        "name:sk": "String",
        "name:sl": "String",
        "name:sq": "String",
        "name:sr": "String",
        "name:sr-Latn": "String",
        "name:sv": "String",
        "name:th": "String",
        "name:tr": "String",
        "name:uk": "String",
        "name:zh": "String",
        "name_de": "String",
        "name_en": "String",
        "name_int": "String"
      },
      "id": "waterway",
      "maxzoom": 14,
      "minzoom": 0
    },
    {
      "description": "",
      "fields": {
        "class": "String",
        "subclass": "String"
      },
      "id": "landcover",
      "maxzoom": 14,
      "minzoom": 0
    },
    {
      "description": "",
      "fields": {
        "class": "String"
      },
      "id": "landuse",
      "maxzoom": 14,
      "minzoom": 0
    },
    {
      "description": "",
      "fields": {
        "class": "String",
        "ele": "Number",
        "ele_ft": "Number",
        "name": "String",
        "name:am": "String",
        "name:ar": "String",
        "name:az": "String",
        "name:be": "String",
        "name:bg": "String",
        "name:br": "String",
        "name:bs": "String",
        "name:ca": "String",
        "name:co": "String",
        "name:cs": "String",
        "name:cy": "String",
        "name:da": "String",
        "name:de": "String",
        "name:el": "String",
        "name:en": "String",
        "name:eo": "String",
        "name:es": "String",
        "name:et": "String",
        "name:eu": "String",
        "name:fi": "String",
        "name:fr": "String",
        "name:fy": "String",
        "name:ga": "String",
        "name:gd": "String",
        "name:he": "String",
        "name:hr": "String",
        "name:hu": "String",
        "name:hy": "String",
        "name:id": "String",
        "name:is": "String",
        "name:it": "String",
        "name:ja": "String",
        "name:ja_kana": "String",
        "name:ja_rm": "String",
        "name:ka": "String",
        "name:kk": "String",
        "name:kn": "String",
        "name:ko": "String",
        "name:ko_rm": "String",
        "name:ku": "String",
        "name:la": "String",
        "name:latin": "String",
        "name:lb": "String",
        "name:lt": "String",
        "name:lv": "String",
        "name:mk": "String",
        "name:ml": "String",
        "name:mt": "String",
        "name:nl": "String",
        "name:no": "String",
        "name:nonlatin": "String",
        "name:oc": "String",
        "name:pl": "String",
        "name:pt": "String",
        "name:rm": "String",
        "name:ro": "String",
        "name:ru": "String",
        "name:sk": "String",
        "name:sl": "String",
        "name:sq": "String",
        "name:sr": "String",
        "name:sr-Latn": "String",
        "name:sv": "String",
        "name:th": "String",
        "name:tr": "String",
        "name:uk": "String",
        "name:zh": "String",
        "name_de": "String",
        "name_en": "String",
        "name_int": "String",
        "rank": "Number"
      },
      "id": "mountain_peak",
      "maxzoom": 14,
      "minzoom": 0
    },
    {
      "description": "",
      "fields": {
        "class": "String",
        "name": "String",
        "name:am": "String",
        "name:ar": "String",
        "name:az": "String",
        "name:be": "String",
        "name:bg": "String",
        "name:br": "String",
        "name:bs": "String",
        "name:ca": "String",
        "name:co": "String",
        "name:cs": "String",
        "name:cy": "String",
        "name:da": "String",
        "name:de": "String",
        "name:el": "String",
        "name:en": "String",
        "name:eo": "String",
        "name:es": "String",
        "name:et": "String",
        "name:eu": "String",
        "name:fi": "String",
        "name:fr": "String",
        "name:fy": "String",
        "name:ga": "String",
        "name:gd": "String",
        "name:he": "String",
        "name:hr": "String",
        "name:hu": "String",
        "name:hy": "String",
        "name:id": "String",
        "name:is": "String",
        "name:it": "String",
        "name:ja": "String",
        "name:ja_kana": "String",
        "name:ja_rm": "String",
        "name:ka": "String",
        "name:kk": "String",
        "name:kn": "String",
        "name:ko": "String",
        "name:ko_rm": "String",
        "name:ku": "String",
        "name:la": "String",
        "name:latin": "String",
        "name:lb": "String",
        "name:lt": "String",
        "name:lv": "String",
        "name:mk": "String",
        "name:ml": "String",
        "name:mt": "String",
        "name:nl": "String",
        "name:no": "String",
        "name:nonlatin": "String",
        "name:oc": "String",
        "name:pl": "String",
        "name:pt": "String",
        "name:rm": "String",
        "name:ro": "String",
        "name:ru": "String",
        "name:sk": "String",
        "name:sl": "String",
        "name:sq": "String",
        "name:sr": "String",
        "name:sr-Latn": "String",
        "name:sv": "String",
        "name:th": "String",
        "name:tr": "String",
        "name:uk": "String",
        "name:zh": "String",
        "name_de": "String",
        "name_en": "String",
        "name_int": "String",
        "rank": "Number"
      },
      "id": "park",
      "maxzoom": 14,
      "minzoom": 0
    },
    {
      "description": "",
      "fields": {
        "admin_level": "Number",
        "claimed_by": "String",
        "disputed": "Number",
        "disputed_name": "String",
        "maritime": "Number"
      },
      "id": "boundary",
      "maxzoom": 14,
      "minzoom": 0
    },
    {
      "description": "",
      "fields": {
        "class": "String",
        "ref": "String"
      },
      "id": "aeroway",
      "maxzoom": 14,
      "minzoom": 0
    },
    {
      "description": "",
      "fields": {
        "bicycle": "String",
        "brunnel": "String",
        "class": "String",
        "foot": "String",
        "horse": "String",
        "indoor": "Number",
        "layer": "Number",
        "level": "Number",
        "mtb_scale": "String",
        "oneway": "Number",
        "ramp": "Number",
        "service": "String",
        "subclass": "String",
        "surface": "String"
      },
      "id": "transportation",
      "maxzoom": 14,
      "minzoom": 0
    },
    {
      "description": "",
      "fields": {
        "colour": "String",
        "hide_3d": "Boolean",
        "render_height": "Number",
        "render_min_height": "Number"
      },
      "id": "building",
      "maxzoom": 14,
      "minzoom": 0
    },
    {
      "description": "",
      "fields": {
        "class": "String",
        "intermittent": "Number",
        "name": "String",
        "name:am": "String",
        "name:ar": "String",
        "name:az": "String",
        "name:be": "String",
        "name:bg": "String",
        "name:br": "String",
        "name:bs": "String",
        "name:ca": "String",
        "name:co": "String",
        "name:cs": "String",
        "name:cy": "String",
        "name:da": "String",
        "name:de": "String",
        "name:el": "String",
        "name:en": "String",
        "name:eo": "String",
        "name:es": "String",
        "name:et": "String",
        "name:eu": "String",
        "name:fi": "String",
        "name:fr": "String",
        "name:fy": "String",
        "name:ga": "String",
        "name:gd": "String",
        "name:he": "String",
        "name:hr": "String",
        "name:hu": "String",
        "name:hy": "String",
        "name:id": "String",
        "name:is": "String",
        "name:it": "String",
        "name:ja": "String",
        "name:ja_kana": "String",
        "name:ja_rm": "String",
        "name:ka": "String",
        "name:kk": "String",
        "name:kn": "String",
        "name:ko": "String",
        "name:ko_rm": "String",
        "name:ku": "String",
        "name:la": "String",
        "name:latin": "String",
        "name:lb": "String",
        "name:lt": "String",
        "name:lv": "String",
        "name:mk": "String",
        "name:ml": "String",
        "name:mt": "String",
        "name:nl": "String",
        "name:no": "String",
        "name:nonlatin": "String",
        "name:oc": "String",
        "name:pl": "String",
        "name:pt": "String",
        "name:rm": "String",
        "name:ro": "String",
        "name:ru": "String",
        "name:sk": "String",
        "name:sl": "String",
        "name:sq": "String",
        "name:sr": "String",
        "name:sr-Latn": "String",
        "name:sv": "String",
        "name:th": "String",
        "name:tr": "String",
        "name:uk": "String",
        "name:zh": "String",
        "name_de": "String",
        "name_en": "String",
        "name_int": "String"
      },
      "id": "water_name",
      "maxzoom": 14,
      "minzoom": 0
    },
    {
      "description": "",
      "fields": {
        "class": "String",
        "indoor": "Number",
        "layer": "Number",
        "level": "Number",
        "name": "String",
        "name:am": "String",
        "name:ar": "String",
        "name:az": "String",
        "name:be": "String",
        "name:bg": "String",
        "name:br": "String",
        "name:bs": "String",
        "name:ca": "String",
        "name:co": "String",
        "name:cs": "String",
        "name:cy": "String",
        "name:da": "String",
        "name:de": "String",
        "name:el": "String",
        "name:en": "String",
        "name:eo": "String",
        "name:es": "String",
        "name:et": "String",
        "name:eu": "String",
        "name:fi": "String",
        "name:fr": "String",
        "name:fy": "String",
        "name:ga": "String",
        "name:gd": "String",
        "name:he": "String",
        "name:hr": "String",
        "name:hu": "String",
        "name:hy": "String",
        "name:id": "String",
        "name:is": "String",
        "name:it": "String",
        "name:ja": "String",
        "name:ja_kana": "String",
        "name:ja_rm": "String",
        "name:ka": "String",
        "name:kk": "String",
        "name:kn": "String",
        "name:ko": "String",
        "name:ko_rm": "String",
        "name:ku": "String",
        "name:la": "String",
        "name:latin": "String",
        "name:lb": "String",
        "name:lt": "String",
        "name:lv": "String",
        "name:mk": "String",
        "name:ml": "String",
        "name:mt": "String",
        "name:nl": "String",
        "name:no": "String",
        "name:nonlatin": "String",
        "name:oc": "String",
        "name:pl": "String",
        "name:pt": "String",
        "name:rm": "String",
        "name:ro": "String",
        "name:ru": "String",
        "name:sk": "String",
        "name:sl": "String",
        "name:sq": "String",
        "name:sr": "String",
        "name:sr-Latn": "String",
        "name:sv": "String",
        "name:th": "String",
        "name:tr": "String",
        "name:uk": "String",
        "name:zh": "String",
        "name_de": "String",
        "name_en": "String",
        "name_int": "String",
        "network": "String",
        "ref": "String",
        "ref_length": "Number",
        "subclass": "String"
      },
      "id": "transportation_name",
      "maxzoom": 14,
      "minzoom": 0
    },
    {
      "description": "",
      "fields": {
        "capital": "Number",
        "class": "String",
        "iso_a2": "String",
        "name": "String",
        "name:am": "String",
        "name:ar": "String",
        "name:az": "String",
        "name:be": "String",
        "name:bg": "String",
        "name:br": "String",
        "name:bs": "String",
        "name:ca": "String",
        "name:co": "String",
        "name:cs": "String",
        "name:cy": "String",
        "name:da": "String",
        "name:de": "String",
        "name:el": "String",
        "name:en": "String",
        "name:eo": "String",
        "name:es": "String",
        "name:et": "String",
        "name:eu": "String",
        "name:fi": "String",
        "name:fr": "String",
        "name:fy": "String",
        "name:ga": "String",
        "name:gd": "String",
        "name:he": "String",
        "name:hr": "String",
        "name:hu": "String",
        "name:hy": "String",
        "name:id": "String",
        "name:is": "String",
        "name:it": "String",
        "name:ja": "String",
        "name:ja_kana": "String",
        "name:ja_rm": "String",
        "name:ka": "String",
        "name:kk": "String",
        "name:kn": "String",
        "name:ko": "String",
        "name:ko_rm": "String",
        "name:ku": "String",
        "name:la": "String",
        "name:latin": "String",
        "name:lb": "String",
        "name:lt": "String",
        "name:lv": "String",
        "name:mk": "String",
        "name:ml": "String",
        "name:mt": "String",
        "name:nl": "String",
        "name:no": "String",
        "name:nonlatin": "String",
        "name:oc": "String",
        "name:pl": "String",
        "name:pt": "String",
        "name:rm": "String",
        "name:ro": "String",
        "name:ru": "String",
        "name:sk": "String",
        "name:sl": "String",
        "name:sq": "String",
        "name:sr": "String",
        "name:sr-Latn": "String",
        "name:sv": "String",
        "name:th": "String",
        "name:tr": "String",
        "name:uk": "String",
        "name:zh": "String",
        "name_de": "String",
        "name_en": "String",
        "name_int": "String",
        "rank": "Number"
      },
      "id": "place",
      "maxzoom": 14,
      "minzoom": 0
    },
    {
      "description": "",
      "fields": {
        "housenumber": "String"
      },
      "id": "housenumber",
      "maxzoom": 14,
      "minzoom": 0
    },
    {
      "description": "",
      "fields": {
        "agg_stop": "Number",
        "class": "String",
        "indoor": "Number",
        "layer": "Number",
        "level": "Number",
        "name": "String",
        "name:am": "String",
        "name:ar": "String",
        "name:az": "String",
        "name:be": "String",
        "name:bg": "String",
        "name:br": "String",
        "name:bs": "String",
        "name:ca": "String",
        "name:co": "String",
        "name:cs": "String",
        "name:cy": "String",
        "name:da": "String",
        "name:de": "String",
        "name:el": "String",
        "name:en": "String",
        "name:eo": "String",
        "name:es": "String",
        "name:et": "String",
        "name:eu": "String",
        "name:fi": "String",
        "name:fr": "String",
        "name:fy": "String",
        "name:ga": "String",
        "name:gd": "String",
        "name:he": "String",
        "name:hr": "String",
        "name:hu": "String",
        "name:hy": "String",
        "name:id": "String",
        "name:is": "String",
        "name:it": "String",
        "name:ja": "String",
        "name:ja_kana": "String",
        "name:ja_rm": "String",
        "name:ka": "String",
        "name:kk": "String",
        "name:kn": "String",
        "name:ko": "String",
        "name:ko_rm": "String",
        "name:ku": "String",
        "name:la": "String",
        "name:latin": "String",
        "name:lb": "String",
        "name:lt": "String",
        "name:lv": "String",
        "name:mk": "String",
        "name:ml": "String",
        "name:mt": "String",
        "name:nl": "String",
        "name:no": "String",
        "name:nonlatin": "String",
        "name:oc": "String",
        "name:pl": "String",
        "name:pt": "String",
        "name:rm": "String",
        "name:ro": "String",
        "name:ru": "String",
        "name:sk": "String",
        "name:sl": "String",
        "name:sq": "String",
        "name:sr": "String",
        "name:sr-Latn": "String",
        "name:sv": "String",
        "name:th": "String",
        "name:tr": "String",
        "name:uk": "String",
        "name:zh": "String",
        "name_de": "String",
        "name_en": "String",
        "name_int": "String",
        "rank": "Number",
        "subclass": "String"
      },
      "id": "poi",
      "maxzoom": 14,
      "minzoom": 0
    },
    {
      "description": "",
      "fields": {
        "class": "String",
        "ele": "Number",
        "ele_ft": "Number",
        "iata": "String",
        "icao": "String",
        "name": "String",
        "name:am": "String",
        "name:ar": "String",
        "name:az": "String",
        "name:be": "String",
        "name:bg": "String",
        "name:br": "String",
        "name:bs": "String",
        "name:ca": "String",
        "name:co": "String",
        "name:cs": "String",
        "name:cy": "String",
        "name:da": "String",
        "name:de": "String",
        "name:el": "String",
        "name:en": "String",
        "name:eo": "String",
        "name:es": "String",
        "name:et": "String",
        "name:eu": "String",
        "name:fi": "String",
        "name:fr": "String",
        "name:fy": "String",
        "name:ga": "String",
        "name:gd": "String",
        "name:he": "String",
        "name:hr": "String",
        "name:hu": "String",
        "name:hy": "String",
        "name:id": "String",
        "name:is": "String",
        "name:it": "String",
        "name:ja": "String",
        "name:ja_kana": "String",
        "name:ja_rm": "String",
        "name:ka": "String",
        "name:kk": "String",
        "name:kn": "String",
        "name:ko": "String",
        "name:ko_rm": "String",
        "name:ku": "String",
        "name:la": "String",
        "name:latin": "String",
        "name:lb": "String",
        "name:lt": "String",
        "name:lv": "String",
        "name:mk": "String",
        "name:ml": "String",
        "name:mt": "String",
        "name:nl": "String",
        "name:no": "String",
        "name:nonlatin": "String",
        "name:oc": "String",
        "name:pl": "String",
        "name:pt": "String",
        "name:rm": "String",
        "name:ro": "String",
        "name:ru": "String",
        "name:sk": "String",
        "name:sl": "String",
        "name:sq": "String",
        "name:sr": "String",
        "name:sr-Latn": "String",
        "name:sv": "String",
        "name:th": "String",
        "name:tr": "String",
        "name:uk": "String",
        "name:zh": "String",
        "name_de": "String",
        "name_en": "String",
        "name_int": "String"
      },
      "id": "aerodrome_label",
      "maxzoom": 14,
      "minzoom": 0
    }
  ],
  "bounds": [-180, -85.0511, 180, 85.0511],
  "tilemasks": [
    {
      "type": "exclude",
      "tilemask": "/X/V11dQ1DXX1DUA9Q1ANfUNQA91dQ9Q1AD9UAAA9fXVNQ11DUA91QPUMQANfXUVzUA1xBTzMQAP1BMQTxFxFM8RcRTxFAPXX11Rc1ENQ3V1TdQA1111DUFc/MVMRcxAPUU1BPxFF8RQ1xDUQ1/xBDUA91QNQAPXxDUA9Q1ANdRf1AADzUA9RTUAwww/BAAAD1119dQ1FM1AxDX1DUNAPUNQDXX1BMQ11FdXV1dXQNdd9XUNdRdwTVDxFXdXRNcQ1DdED9AA9QQD1d1TVDX1DUA9QR/RDQAMMFPMEDwHFVzEMV0T1BxXEXzzxFxFPEXEXdXQN1R0QzNAAAP9cRdXUA9dQxDdQ1AAP9A1ANAD8RQ9AAAADzzMQAPMVFzUDBfUMV0VzxXRNQA8cRXxFMVTPxFBM1AA3XXXVHXUNQ110DENdQxH19QQ9QTENd1EN0QA/0Q0QAAMwMDMExDRA13ddXV1dU9XdQ0A3V1T0AA90R0A9UADdXV1dAfV9U0DQD3VNQPQAA/RR0QQ/V1dU9XQPVAPVAD1dU9U0APVAAA/dXdUTXXRDQPXUNQ9UAD3XVNQ9QAE8TUN0XUEzETFTMzUAAPX8U1FV11TQN10Q9AAwMB191HAV8RVX/QAAPAxXBfEXEVzAwUxMQ80DBTUxHXUH0XEVTzzUMBwX1DUcENdRfRDQAP1xFfEXBV11dE9RcVfdUxDFXExDXUNR90R0DXUdQ9ENAPUQ0EzwMQzVAzETUfRBxU81ExBPUXEH391RR8ENFDdEdwR0QfdNEH0Q0QN9ENAHDBAN99AA3VHQA9HBBDXXXQVfR9ENAD1dFH0U0QD911dXUNddQX/VAPENRAPXUNQ3VNQAD/UNAADxMRcxAPUXEUzNRANdfXUVzUA9RcQVPP1FxBcxANcQ1ANfNQMBfAcVxFU/NQD1FxBMxExFzMVNRMxUXXXXXXUVVzPM1AA9Q3QAAAD/zUAT1FxFcxMRDX1FNQ11BT/ENRDXUENfENRDXEUzXENRMxANddfUUFT8zUAD9A1ENQAP11DUNdA1ANc1ExFM9Q1AADwww8DMRMQ8wXFXDRDV1D0QAADw/zBTUPBDQDMRMQ9FNQDPEdEAAw/AcFxBAwwEMDAwMDBcMMMDAwHDDBDwXBNQMMwHwXBNR0DNQDzATEPBDQAPDA8FxXUdQw9ENAAMMMDAcHRPDAcEwMB8Q0AwHMRwU/8Bw0Q8VV9FEzxXRVPUXEXdEdNEMxNRMxAPD0Q0QMDDBT0Q9AAPMQDQA/XVNADB0TwMRwQDxNQA/wHBMQ0AMMFwXDBcHRPMRDdUxAD9AAMMFDwMwMBMxAM/BcE1DQM1AMDAfAcVxV8MED0AA91TED0AAPDwHBMQ0ADMwExDB0Qw/BDQAA/D0QAA8DMFxXVP1AA0Az1AADMwNRAPw0QwxHRPBTUDMBMV8EPBdFQzNQAP0AAD8zEQD9EAADzwHBMR0QMDwHBcQQD/MxEPRTQA/RAAMDAwHDDFdEwMFwzAwXF0XXEXwwTBT0TUAPMxExAP1TQNUMQAwMDEf9U1AAPwHBMR0XMVxV1D1RNRww0QD8wMBzATUfBMR0A8MFMxEPVAMMBxXDxHRcRfBcRXzAcFddUX0V1TQP9ExAxHR0TMQcB9Q0DBcE8xU1DXUNAD9ExHRMQ3QNQPRAPAcFxDUPMBxF8ENEA91TdFdR00Q9TUfQMF0TUTDEdFM8Q0AA/wXBNQ0ANNQAPDDAwHDBQ8wQ9QAA/MQD1AMFMQAPMDAxEzMRMQD8DEfBcEdAdAP0U1AAA8MMwMMQ0DwxXBD1TQAPMBDwQ0ADMDDBTzUAADDwMMEDP1AAAAMDAwMwwHBcxUX8DAwPAwHDBTMRwHBdMFf/XEFzETEN1RXPEHUAPXFV9RRffRAN1DQAP0TBV8F0TUNE11R9FwVcPBDRXwUdFzPEEDMFxHFDM0AA/XQNR11HUcDAfUNADdHBdTQN1HUH9RxXENQ9FFMxAPDBDMQDXENQ8EwTQDD8MFDcFdQ9EAAMMMPBB0UD/1DRB8BwR0AAMwzATEPBcV1HQADPMDMVE8DAfFVcxXAV/AwHwHBVVdXdUdEz8RVVwMxExHV3VF3d0RH0Q0Qd9FwRVPzMRMRMxAE18RcRVz8RcQXEU8xExBF/3DRcFddU1DwwXBDXUNQPdQ0AAMMMDAcwXBXDwQ0UMPDBA9ENFA/xFVddU1D3RVw0Q11DUPRAAP90VfBBHRDdEd0R0QPd0VVww0UHR9FHRQ8Pw0AAAzDwwHBTUfRRDAzATMQD8wExDdEdEzETENwTUNAPFdNEN1TUNAA/A/BR0ADwwMF8BV8MFwQ1dEPENQD9UAAAA/AwPwHBMQ0DMFNRDzPUXEU8QRM8VdRTxFxBczMQAPwQ0QAPX1FxBXxMRcxExFcDPMBMR8FNUADPzETEXMRMRXzETEE1xFTzxBExFzETExF9/DBA9EFw0XBcMMEB3wQR3RVXD/BBwQfRRcMMEB/RR0QcNFB93dFVV/DRQ0dEDfBBwR3RFH3dEdFXDwUdFwwQd3RVXwMzMVwFPFVTzFcRXxVV8wwMF8BwRfAwHMBxVxVfMxExHDBDMRMRfcFXMRVVfAwMxExHzMBwFzAcBV/FVVXMzETETMRMQ8MFDdEdED111DUNdQ1BNfUXEFdXV1dddU1DXQDwww/BBwXDBcEXDRcMEAP3fRBHdEVcPDBcEN0RAf0dANED3RFwwQdHRDzMMFwTMQDdEAAN38FHBB8ENFHdEdNUNd10A9UAP1TUA9Q1AA91dU11TQPQAPXUNA9EAMxEAw8PRMRD0QAAPXXX9ddUN1QNfUNQDNQD9AAAPX1TUQ9EQ19U1ENQAP13VA11FczUQD1D0QAPV11DEdXdQ1A80AAANf3XUH1ADNRDXdRDUxANfMRMQTNRDX1DUA11FD111dU9U0APXRNR9U1DRAzEQ111xBU89RTEA18QQ1NRDXXXXzETENdQA/UXAV8RcQ0D1TURddddXRfUAPV0DXENEDdXXUNQ/UEN1AANd190VfEU1DdUdAPXUFzVA9RV91dU11DUN0TUdA/UNQDUADM8RTUQDX18Q1ENTUXMxEA9dRUzUR1dXXVMQ11111111BV1ddXXRMRdddXV3UNANdfUdQD1FDV11DUddXXV1T1DUQd9dXV1dF911B1cE9AA18RVfdAQ9EAPxFxF1DA1A11/UNQDUA/UNQD1DQAD1ddUNfUNQD1DUAD1d3VFXDDAwXDBcEzNFAH9XUN0QNHRA90VfBcEdEdHBcMMFA111dXV1TXXXUNQ9U1EN3VHQN1ADdXXVN1APdXUN1TRD0AD11DQN1DUAA/XUNR11HQA/RAAA939UHRBVdXdXVHTVD/AwU8FXVA9wR0UfBDRAPfQDBcEd1RD3UNAPVDQAA93XVNQ9UxDQA3dU0A9AMQA/XUD1DQAD9QAADAwMDFcM00A8ENAAPD8w8FwR0QAADA8wwMFwwQPE1D0Q0AAD/MzUQAP1xBTNQDdXVPUNQD1AAA/9U0AAAAAzPzUQ1AP1DQAAAAw8DMwXAU8QQw/BMF0R8FE9EAAD8DA8RcQ1DDwwXBDXUNADDwHB0XxFxBfDBA0QD/E1DdU0AD9QAAAA8wPDAwHMBxVw8FwRcHBfMRFxNRU8wMDETMxXFXMRF/HEVVXPwFxFfEXFVwMDAV8PDDBcFwwXBcMMEB3wUdFXDDcEUDffRcEdFXDwQQfdFXDRR0cEd3dEdEVcPDwUXDBA3RHRDMMDAfBVcMwUTzETEXEXPzHEXAxFfwFxVVX9dRXxBFfNRMQT1BFcMDMDATMQDMwMBwMB8BV8MED0AwHBTxxFV/PAXEUXwMBcxXAVX/EVVVXf3TRB9ANFB/BBwQfBcFX9NQAPExFPUXEXDDRQ8DEfFVcxF1Rf3RVwwQfRDRDNTUA30Q0QfRDRDwMBzAcFxXMVHXRB330QDdAQ8xAAPcEdEN0BAf3BHQDcEdFDfRR0VcPRRwQ8MPB9FwR0UfDRA9EEA8zDAwHDBQ8xAxH1QTMQD1AAAP33BHRBHfRBHcEdEzPBcFUA/XUVPUUd3RVX8EEzEQ9QAwxF9dRdXRPEUxDdA0A/DBA9AAPMFNQAD/AwXDBDExDTVAMMHBDwwMR8EEAz3RAAA/wMBwwTFcQ9E1APDRA9AAzEQD8HRDdE1ADMMR0Q8Q0XEXMDEcMFMxB0Q8zUTEA/VDQDxHBFN1TUAP/BRADw0QPQAAAw8DMMR0TE1HDRQzzEQ3RAAwMwExHDDwQQD/88Q0ADEPNADxFxDUTMRMRMzEAD1dTENddQ0DXEX1xDUPRAAA/XdU1Q9RdR0T1dQ3VADNAA/1AAD8RcQ1FPENQAAD/d1HVDdUAAA/8QxAPUUA/UNAAAP9RTUNdQ1APXUHXUEAAA//V1DUA/UAAAAA/M8R0QAAADDAzAzFcRTHMRFw8N0VfBBDd0R0R3RHRA/8Bw0QxNR9FEM9AAAwMDAxE8DAxXMxAMEMzUQD3RNQAPDDB0QD/UdAAADA8DAcMFMxENAzPDFdEPUNAMR8FwR0U/AcVxVddRUzxMQTxBAPD3RVw0Ud0R0UzA3RAD111BfDRcFwwQdE8xANcQTEN3BFXDB8EEM8PAwMVw8BVcxEwMBfD0UXDRDDDAXDBcFXDwwwQD0cEH0XBFwwXDRcEzAzBRwMDFc8RcVcVfzMRMVMRfMBHxVXNRMRV/wFxVdcRV/EUXE1FV8DDDE1D0Q0ADAzMDEcDAfAVcDMVwF/AVVfPMBMQ8FNQAwwMFwwTAfAwHDFXwFVzDAwXDBcF/BcFXwXFVV/xVVVV/8xANTUTMRDXUN1EA9dcQddQXDxFNQ8ENAP1FxBcRTPMQD1FxFwxF8Q1AxU/EEMxAwU8R1TATX19RcEXV11TUfDBD1FxDQPQAD3UAzEADX1xFfEXEV1ddU1D8MMFcFw8BwVfBcFVfwMV8BxVfFVVVf/BR0UdwVcMHBcMFwVfzUA9Q1AMMFwXDBD3VAA3dFVfDBDDBcF3FVV/wwMDBMwwFPFVfAwMF/AVd1TUDdExUzAcBfxVVV/MBMVfFVX8FwFVVf/UExXdFdU1dU3QAN8EFXw0XBBDd8ENEHRwR3dFVcPDBA3BHRQd9w0QfRDRA3RHRDV1d1RwT31Q0QfRDRA9XQPQAPQcEXDBTwwHBTxDUHRDwwwMMFA8/UU1DXQMBPAXEUzMRMRMwExX9cVd0VV8MED0XBFNXV0DfBDRDUPQAMzwFXMRwV1dQPdUD0AAP1dU9UA9UAAP8xExDTQDAxHwQQ8xAPVAAMDPFdExDQAMMDAxXDxVXcB1TEMMMPBTUDAcPAR0AwwwwQD9XV1dUfdXVHR0T9U1EN0AA3dER3REP9RcRXHEV3V0R1dE/EUXE1F91R0D0ADdEdEP1dXVN9UdAd0R0Q30AwHBN0DRMB8RcFxHDBddU1H90R0TdEHDBQ8wUQPdEA8FEMMwU1A/0DEQ0APxF1HVPQAAMDDAcFwwwxVwU/zEA0AwMFwwwXBcwHFXMxExH0Q0QwMBfzETFXwVV90B0Q3REwMBfcFVX/RcFXxVVXXV1DdUDddU0D1DQANfdQD1FxFM1ANdQ11DQP8DFcwFfFVX8FVV3dUR3RV/ENQD1DUA8FwVfBR0X9XVPVNQDV1DTUDAwwVwwwQwMR8xXEV1dU10A19XVNdRfQAMxAN1dQ9Q0AD90VfBVV90R0TwHBcR1TTRA91AAD/zATEPBDQDwHBcRcNEMDAxH8RQ9EADMxUTNQD8BfFVddAd3RHQN1TQD0AD3RdU1HwQ0A9AAMzARwMB8VVwzAxExwF/BBDTVAzzFcRXxFxF3VHRMDAwH8RcR1TdA1AzBVzEQ/DwFXwQ0QPV0D0AD0Q0QD9AAwwwHBcMFxXMDATEfxVVXDD0TAR8ENADzMQAP1BDXENRDMDBTNQDwwQPQAD88Q1DAcV8BxVX8BxVd0R0B9UDBd11DUPUAPBRwT3QNQM1AA8xHDBA91R0XDBDNQD0AD9AAAPN0R0QAMDDMFEzM8RQwMB8BVzAxE8FxR1Hx0TEd0DRD0Q1QMMPAdExDQDAzAcBfPUADAwU8xHBXXRcE3UNAPUNAA/zMwMxExDAzEQ8BPRAADAwwMDEcMMFwTMFxF/w00AAADDwMHBTzATBddU0DxVD0AADzDMDAdAzEA8DRAPA9QA8DEcNEAA/AzBTUMMxED8BwQAD8DAQP1DVAAAAPAwMw3RAA8MDDdE1DQAzPHAXV1DxHVA9AAAMPDMBcR8FEM9QADAwMR8DDBXwMFzAcFV8xEXwVVfDDAwHDBXDwXFVcwwMBwwXFcwMV8FwFfFVfwVVX/FVVV3dUdAfQDRD111DQNTUNddQ1FPDEdU9RcRd0QwHHBMQzMMxAMzEQwwHFcxVcwMwUQ8wMV8ENEM1AwX8VVfUVXPEXFXMBMVXAwMzETETwFxB8zAcxDEX1FXMDATwFxVf8BcQXxVVV/MBwHFXxFxVVX/MBzAcVXw0UNNEMxXFXd1R0B9UMBfMVVX/QHFVVX90TRVVV990R0Q3RHRB3DBB9AAzzEQ9EwExAA3cNFFXw8EHRTDDBcFwVV8PD8BwXEXBwX1R0DENdQ1DwwXBTXUFww9FxVfBR0XDBwUzMxAAD/UAPUNQAPU1FMxAAw/wUXDRcE1xFcPBBcMEM9Q1EA9cQdxVcxANR8MMFwQN8EHFV8wRcMEH0AwXAcMMMMMFwHDFcEA8zMMV0XMFHdUQ81APUAAPDAxHBwU8R1dAAz/EENdQTMQDX1FNRcMwXEXwXBVz1FHwVX0VXwzAR8VVzDBcE3BVfNRDU1AzFRfxxBVV/DwQ0QAMwwMBwxXBczBcBcMBwXxBwXUPwVV11DUN1DQD8MEDcEdFwwXBfAwHMRXHBVXcMMFwQd9FVd1R0D8xHDBDMQDXXUV9EA/EU1FMxANddcFwFfPAXEXXUF/FVfRVV19Q1ENdQV/9XVN0QXwTUdFxXwdFHwUdFXD9ENFDTVAH90VfBB0VcwH0VVXMzMBMVPFVcDMBMV8xEXxVV/BD1TEcFdwVcwMB8FwVfFVV/MBxVVVX8zMRPEXEUzxFExEzMxExExEzwFxFwMFXwMMwXFXAwHzMBMVzATFX8VVV/UNRMRccVV8zARPEXEX3RHQMxHAXRxF8DEfENAXMVwVfxDFVVVX//1QAAwMDAcMMEDPExBPEExHMDETMQDw0QA8zEAD9AAAMwwXFcxExF8MMBxXwVXB9FNFfxFXV1TV0T0AD10DUE8Q1APX9RcQXEVfxF8VVX1dU1xB9AAzEQ111FdXV1dU/MDAcwVfBVfwFVXV1dQ1dXUP3RFw0R3RHRM1ExDw0QPRRxHDRDfRDFdE10DUNwTENA9xHUMQ9ENADcB1DEPd0VV81APQAPBDQA111DUXwQ0TDAX/BTUAMDAcMMFDMxAMwFfBcEX9QxENDAcF8VV881ANTUAw9ENBwQP11FcxAPUNADd0VfUNQAD3cFXXENQ10A/BDRDDAcEzETENdQ1H8BV8FwVV/BcFXwVdQX8wExHwQdFXwwTBcMFwV1dA9dQ1F9FxVdXVN01Q3VAPXXXXUVd3XVDdE1QN3VNQHDRA9XV3UNAPd1TVDdU1QAP1DdUAP1AAAD/wXBdQ1DxTQdAxAPXUDcBMRAwxDMBMV/xTUXBPRAPUdExF8BcQ1A/EXFU3RFD8MFwXDBcV11A1MQ8MExHxVdR3FdQxDTQAP01QAAP/TUADPEExAA9cxAwH1DUDBdfUHBNRfMQD1DUTATwFxV90VfEVX1R0R8PAcEUwMMFwTfAcBVfMBVX8DEXMQF30DUA3VHQB9NED0UcEPdXdU1Q1d1R0D3UNAAP3UNUPQAAA/dQD0AAADd3BwR3RVVfwwdFDfRdFVfBDTRAN/RDRQ3RHRB3wQR0XDDBwUMPzExAP0Q0AAAA888DEMNUAAAzA8NRcHRfEXFVPMxExAPdU1A1AA8DMwwHFcxXEVzAwHDFXwFX8RVV8MMDAfAcVXwwHBR3BVww8FFzBVw8V0VfBBf8FVVVfMwMRMxExHDDRAzwHFcRTMRBwMwMBMxE1H/UXEV8RVXV1dU111BXAwzAzBcRczBRMxAPwQ0Q8Q1EA8zEcBfBBfEUPcEdEPVAD3UAAPzMxEAD18RTUXxwRfRRfUXEXPUXEU8QTUHPMBMQ8FFN1TUNAD8wVfBDRHdUD0DUTEP1FV3BHRPENRD8B0XENQA/UdEAD119Q1DBcV9Q1HRcVX111FXzUTEXMRMRV8zMFEA/RwQ9Q0AAAPzXUUzUQ11xDUUzXEUxxF113QF9QcFdfRMRwXBNTUPPEXEU8RV90VVcTxFF3cHRFX3ffRdFVfRD0AAfwQXDRcEVV/DzATEdwRfBV0XXUXwwQNwVcFwzDBcEwwUDdddR1TdFB/ENA0QzEQ9FEP3RV8EHBPUUfVNA0QwMwEf0TENRPUAxUzEDEPBfBdRVcPDwQ0XBcMBcMEN9FVX3BHRDRA9/VMB0V8VXVHwXBVX/RADwXBV8FF/EU1FzEcEF/RcEX1FVXdXV1DV11Q3cE1DQPVNAA/1dQ1dU3QMFwQPdAdEN0RAP0Q0AAH9XV3VHQP1dU9AA3RED00QAN31QDdEQfRDRAwMwwwHFfAcVXPAcVXMRwFX30cEN0VcMEHfQANXVA33RVw0UdHRVw/RDRQ3BHRQ8wMxHAU8DAfFVcxUX/FVVVfAwMR/EXFVXMxUTxFxFXM/McRTxFVz1FNQDddQQ19dQ1DXUNQD11DUXMRMRTPMRMVfBVXwwV8VV11FU8zDAcFPUUxDwwFwXxV1FfDBTAwF8FxVfzEMFPUNRMR3RV3RF3V1H1DUF9QxBwXXXUVfzUcBXxFxFX8QQ1xBM1ExDXXUF/xFxFfEHFXXBVd1dQfVDRDw/AwUdwR0UfDBA9ENFAPfRwQ3RHRR30QR3RHRDd3RVVfDcFXBwXDDBAfcEXDBB3BFzAzDBcFwMRcMMMEAzzFRfAXEVPXEVxMQfMD01AADzzBcBXxFxFczBRMxANfUXENQ11F33VHRPQAN0RR9XVPRAPRDRQzPEXENQAwwMBwT/VHQNQ11BMxAPcEXDRD1BXR0Q/UU1HV0U9Q0APDzBV8FwVV/BcFXwQcEXDDdFXBwU11dXVNddRXf0XBVN0R0QfdEdANNEDzxxF3BHRM1EN0AAA/9XddUN1DQA9dXQN1APdUdAPQAD9AAAP1dU3QNAPRAAA/MxAA/UUHAwVzAcwExB/FVVXzxFxBDU9RRMxNRDXXXEFf3wXBFXw0QNxXRHcEdE9dQ1DdU0ADzUA9QAADPM1ExANc1APUNRMQAPV1dXV1TXXXXUD1FDdXQN1QDdddQ1B9Q3QADPUUxAP1dXVNd1DQD1DQA/ENQD0AAD9dUNQD9U1APQAAAAP119dQ1DU1ENfEExDXUFfMzEAAP9RRcxEFzxFEzEQTPxFxFfEEU8xEwFzETEVfM8Rc1ExBM11FPEUTMzUTEDMRMRMzETEQ1119QTEFT88RTUQ11xBTzEA1MQDX11FcxENdRU88QTUTMQDXXEFM9RTUA11118Q1ENdQVTPz9RTENdRTNQAPXU1Fc9RTEA18Q1ENdRTMzEAANf1xDUUzUA11FPMRMRTXEVPM8QTUTMRANfxBMQTxBMQTPxFNRT1BAA/XV1dXV1T1dXV0D1dXVN3VNQPVNAA9XUN0DQADfV1T0QDdAQ3V1TXUNQ9U0AP0AAA/dXV1DV11Q9XQPQAPQAD9XRD1QAA99AAQ91R0Q00QA/EXNcRTxFxFXxzARX8QcBXxFxFVzMDAwEzMRMVMcBTM8RcVcDEU8xUXwFxFf/EXFVVVX3d3RHRHdEVV/DDBAP0Q0QPRDRAD9HBDdEdED3RVwwQdEzAwU8RcRfAwMBzDAcF8BVfDBcExxFVf3TRB9ENEM8QQMxEd3RVXw0UxHdEXxFxF/XFVVV19dA1BM1ENddRX8DAwMF8DAwH8RcRXxFVzHFXMBVfwXBV/AcVVVVX3/R0QfBDRcEH8FFw0XBFzPUEAw3BVwcFHf0UdFH0UVV//VNQADzEcBwXdUwQ8RTUPRAA/UPVNQAAPDDBAPR0UfBDRAD99ENEH0Q0QN9EAQPfBDRB0dEHw0QPRRwQPxPEExD9FwR0U11DQAAH990VcMEHcEdFXD9ENED0Q0ADd3RHRHdER3RHcEdED3d0R0R3RVXD9ENFD1Q0QB/0Q0QPRDRAP0A0QPRBAPd/0UcFH0XBF81ExFzEMEF9HBNcRd0VfEVV19ddQVz1FEzEA111FV11dd3VHRHTQD9RTENdRTMQDXXX1FNQV/PMQDU1EA9fUENdRXMxAA9TUEzUAD119RTENdQ1DXXUV111dQ11DUNddQ1DdU0AAP3V1dU3XUNQ9QAPdUD0AAP3VEPQAAAPzxBAPXUVzUA1xDUA181ENcQTMQDX1FNQTMzUAAA33/RDRA9ENEA/RRwQcNEB93BFXw0UHwQ0Qd0R3BFwwwwwQA3V1ddU0DV3V0R00Q91dU11TQPUAPdQ0AAD/cEdFNXVA90RD0AAAPX9TUEzEA19RTEEzNRANfU1DXUUNc1APUNQDXXX1DUA1DXdUD1ADd3QNEN1TVA9dQ0DdQAAP9XV1T1dEPVAD1dU9UA9UNAAAA//DDDBcEMDMVwF/xFNR9EEzEA0D8RcQXExF8MFwXMRwTEF9xVVffBcFVfwXBV8VVVVXd3fBBwVVdXV1dQd3fRDRcFXd1TVMRfRHQX9RVV3V3RXVH3VHRPUAxHdEdAxxF/1DQDAfFVcxXEVV11/NQD1DUQwcVwT1DUA/VF0TcVxF3RFzUMEPcEXDRT1BD1QD9cQ1DXUNAMDAd1dQ8QMFwQzETEd9ENEH0Q0Q/X1TQNAD11TUNdQ1APRwXDBD0RwHBNwHUMQw3RHBT9dQ1DXUNQD11BTxDQAMDAxX91TQMV8BxVfEUxDV1TfRDRR3RVz1DQAwMBzAV81AwV8VVfDDRQ8wExXxVXwFxBfcEXDRcVddEfxVVX11dXXVNQ111DXUXV11DUP1dXVPTRDxFxV9ExXFV31Q0DEdXUMcVV/cFVV111FV/1dA9U1AAPMBHwTBV8BVfwXBFwwUdwVcMPBMB0V8FwVfMRMRcwHBVX/xBFzEQX8FHBPUXEXVwX1FVV/8PRcEXDBA3cEVfDBA0dFDd8ENFHcEVcPwQQ3BHRAP8MEPENQDcFXwUX9Q1QNTEMMFwQd8FFX90TUNRwXMQD0DUQ8HRTdQA8HBR0cFwwwUHd3BVVcP8EENwRcEN9FwVV8NED0UcED8zMRExEzETHAX9ENHRA90R0Q3RHRAzPEXEEzUBMzEMFwXAwF/RD0AwQMMMBxXB0X9AMEDdEdEzETFfxVVXD8xEXEX8EENNUD8FV1dEfUDRD9AAAPPMRMR1dUPQADAwMR/1TQA8BVzATEV8cRVXMzETFTEcwMBwMB8BV8MFwXEVf30Q0QdEN01Qd0VcMHRA3fBR0VV8PRR0UN3BFXwwQPRMFXwQdF913V1DdU0A9QMFf1FxBfBVXd11R1dUzFcBV/wHFcVVVf11dU11DQPdEdAPQAD0cVwVfMFXwXFVXMDMBH8FwVfBcFVfwUVVdd1cNEHfRBHV1T91APUEDAwX1xVVzHAX0U0A8RcRV/8xExV8VVVVVf/d0VV/BBwQ3RHBMDBV8xMRwxXRcxExDfQAwFd9FwRV/ENRwTFVV/zFcVVd1dU11TAXdXVH1DAdFf0DEcBVf9U0AMcBfBcVVVX9fUXBcVXdXUX0UTX1FNRX3TVDTVA8xAE8QQ/QAAD11NQ11Fc8RRMcRXXV/VNRwXBdcQ1HV1D0Q0U118Q1APUMQDX1FF9/XVNA1D0Q0QPXEFPUNQD3BHRDdFXwQcEwMcBX3dEdFXzEcBxVVf19Q1EPQAPXUD1RAMNwVcFzMBwHFfAcFxVf9U1ENdRcMBwXxFVX3XVNQXXxVVVX8DAzAR8xExNRfDAXBV/UHBMQ11F3BFxwVzPFVTxFU8DAXMRMRX3d0VVX8NED0VX0UdE8RcTEX1dRdwRfUV1Dw0Q1xF8EA11Ffd0VV8NFwXxFwVXddU1DdEdFPXUVxMRfPMRBPEU1ENf1FMQT1FFPMxAA/UUXMQDXUUzxBEzETEN9H0QcE8xExVxwFX8VVXV1F3d0R0R3RVX1/XUVVVdf9RcQ1F8ExBwVVX/d9UA3QNUB/RDRDAwH0QDHEXzxFXDAcVX8VVVd/RcFXxDUNFwR3RVX/UU1DXEXBcVVVV/8wMDBTMRMcBfwMRfAVV1dXVNfVAPEVfAwMB8MBfEUPFV0QzMRMRMwXEX3RNEDDBA/1AAMxHAX8RxXEVXPEXEU8RcVd3VHQH1QD3XVxF3dUdEd0V1T9AxENcQ1EN110DEXd0RPEU1D0QDzEA1AP1dU3QA3RAMMMBwXDBcEzwHFcVcwExFcPcEXDRcEd0VczQQD88RcQTExH9FFNwFxXwQ0QP1HRMR0QzATEfFVfNdRTxFxF30QcFXPEXEXwQdF8RVc8xExF8BcVXMwHAXDBcE8RVX/MVwVVV01d1TVDDMRMR3BV3V1dAd3BFX91TVDAwEfDBDXEDcEXDBDzBMV1T1FNRfEVd9FHBF/X11Fc1ENTUX11dA9Q1ANfUNQA9NFB9FwRcMNFwQz9RcQXMQMRfwUwUwwUPFcEwQ8wTED1F1R9AAzEA3fBcFVddcRV/XxBNRdXdUdE8xExFzEDBX1dQ9UA3RHQD9dQ1DV0QwMF/ENRDXUdUDPUNQAzATAcPQDBA/xVVX9ANED0Q0QNXV1T9EAAzMMBwQ8Q0UQ/PEAAMPBMRTdF1DUMwEzUA/NRMQRcR3V0B00Q/1QAAw8EFw0XBPAwHDBDMQD0ADzXEU8QTUd01QfRDRDAwMV9dRfRDQDxB0XVD93REfRAD3QAAAH9/RcEXDRcEVfwMV8VV8EXFH3RHRDdEdFzAcBd1cUX11F8Q1AM1DRAd9HRR9EEd3BHRHdE0Q/DwQcFwwUP1BDTQAzATEMH0UcE8DDBQz1AwXBD1HQAM8xAN0VTETMxEwEzEcFxD8NFwQ3QED3RcVfBBHR0Q3fV1Q3QNUB/RAD0UdFwwQd3RPVNQcFwwUX8wMFwMR8BV8xHBTXEXRfEHBXzETEE8RVd/BcEXDBcEd0VfXRDXUNR01QNfUXEH1F0Q/DAcFfEUXV1dE/AVVd9UMFHdFX/VDRMRzBVzEA9AAMPBBA//0AAAA8DAwXAwHM1EA8EwwXBfUAN1QPMBDDUwXMVNQ8MED0AA8Q8BwTUNADPMDEQ8NEAMMDAcHBPBAwMF8N0RxHMR0Q8EwMB01HBccE1E/EU1D0TUQD8cV0X1TQA9U0DRDAcxDxXRNQ0A9AAMzDMBMRw0QM9RMR0UzUTVMPAQDMzRRM0A0A8DAfFTVAD8DAwHDDDRAwMxHAcE/0AdFwxF9Q0AD8FNQADwwXBD1DQAwwHBMzxDQAwMB8BcVczFTUDMRD3FdQdNUPRDBcFwwQ88wExHXRTMVMQ01Aw9EMFwQ8TEPRDQAD/UXENAzETFdNQPEHAX3REPVADzBcFfFXVNA1wF3RNQ0APM3RMQADzxFxDQA/UUPVAAMzATEAD/xDUDEcNEAPwU1AAAPPDDEUPxHRMR0QzAcExHwUQwMxE8BwTEdU/cRMQ01AADPAwxHRAA/B8EHBM8V0R0TMBHdATXXUF3cEVcPDRA00QD8xAE1DXXUFPMRBH9EN0VcMEDfRDRB9EAA3d/R0UfRcEXDwXBVwcFVVX/PMBMRcxENdRf0UdEHwQTPEExAP1dUwwFXw0QPRRcNFwT11FfFVdXVNd1ANTUPd0VV8NFDcEdFHfRBwRf11F3QNFxHUXw0QNNUDxNR1dUzEcEd0Rf0AAzAcBfBDRDw/RR0Q3RdRcHBA/NRDXUNQD9FwRcMEPEExHcEUzMQAPDBA90XEHDRDExH0XBFwwwQN/0TUdExF3EdExF30ADdEQ/RcRcVV9NUD0Q0QNdX1RXd1TRDdEA9ddEwF/RDRA9AAPMRDXENAAz8xANRM1ExD0cENdRfBBwQ/EUHAwFM8xExVxFPwFxFfEXEVw8PwQcEN0VQPfRMFVfDRA9AMEB30UdEd0BMMwMBMTUPwHBF8V0V1TdU1A9QA8DAwdFwwwwTEcxFxHwMF8BwRdXVNdQ1DPwFxB1dQAP3ENAPUAAA/f0UdEHwQcEd3RVXzATMQDw0QPQAD8ENFDcFXDRAfdwVV/BcFXwVVV8DDAwHDBcFz8RcQXExBwwwXBTNdRTNQD/RcFXwVVVd90VT1TQNFB3wQ0Ud0RV/XX1FNRX/RRDTRAPRwQ3RFwwUPPUXEEzEQ11xFcxxFwwXBfEXFV90cFXDdEXDBRcPDMFwF8FHRB/BR0UfRR0XDDDBAHf3RVwcFXwMFwdEV3V1R0R3dFVfz/XEVV/UUXMRDXEFfM1ExANfEExDXUUzMQANfXEVzUTENdRUzP1BDXENRAA9XV3V1DdUdEPV1dXVNdddQ1BfXV1TXUD1dU9UA9QAP0AAA8zUAD9RQ3UAAP19QQ11DUNddQ1DXUNQD3V0DdU0AP1QAAAMz8DEfBcFXMRMQfDRA9ENAAMDwMB8FVzFcRXD9FHRBMMDEfBcEXAzMxXEXAxFPMVFzUTEH8zAcBTxFVxzEcFxVfcMEH0QXxF8RVVXwwzxVXDRTXEX9FHBDdEdEA/3RFzUMEH0UcE/UNAAB/BBwQ3RED3dU1Q1dAMMwXFXwXBF/VDRcEH0XBF19RcFxDXUHwwXDBA3cEVfDRQ0QP9dXTVMB1wxV9RVf9Q0AMxExEzEQ1dXVDzUA9QAD/VNQ0Q1xB9EANfENQD0ADAwMFwzAV8FxVdf11DUE8VVfAwHxFVddXQPQANfXUNQ3UAD8QTEHMBMRc/AwHwFXHEVddcRVP8QRcxEFzxBExNRf3XVDdUQ/UAAP0Q0AMMEAzzETEXMQDXUUzNRAP9EEN0RQ30UcEd0VcMMEA19dfEXEVX/EEXNRMQXNcRTMQDd1TRD1DUANf1DUQTxDUA19Q0APUNQDXXX1BDXUVfM/UUXMRMQTE1xDUQ99wRR9EHBHd0VVw8NFDdFXBwU/1FNRcxANcRXM1EA9TUUN9wVcNFwRdT1FDXXUVMz8QTEEzUAAPMwMxExEzMQAPD0UXDBA3R0R3RHRA/wwXBc1HBB9ENEPXUVzEA1xF/UNQDMBE8RcRfwXBV8QQfRDRDXXxBNRXzNRE8RTUd9EHRHV1Q81AAPPUU1ANfUNQD1FMQMMDAcMFwX93RE3UAAAPwMDEcPBcFXwQTMxExAN00ADPwFxFfEExFM9Q1AAD8zzATEXMRMVTxNRT1FNQD1111DUNdQV8zUAD9RQ1MRAPXXEFfMQDXEUxMQ111DUN0DQAP33RVw0QdwRV/xDUA9Q1AA/QAAP0UcEwMBcR8Fw0XBV3V3QE9dA1BD1dA9AAD91TUDExANfEENQDwzAwHR0TwFXwwUHDBA/dEdA1xDUfUAD1dQADMwMVEzXENRAA/wzDBXMFF8wVfFVVw3wXAVX8EHRMwHFVf8VVVdfEExDXUXXXVF11fVHRF/DAwHBcMNFD8FxFVd9FEdwR0Uf3BHRB3BVw8EHRR3wQR0TzzETEE9QQD30R0R3UAxNRT9QQ1xBAPV1ddE1H9XUXdFV3TRDdUwQNXV1T0Q9EAP8QQ11DUA9dQ0D0AAAPPMDFTwFxF/AcFXwUVc8RTUA9XUPVNAADMDDAUxPUXENRzMwMBMRMzETETMRMR8MFwcEN3RVdXQDAwPAXFU/8Q1AAAMzXUU8QQAA91111ddA1DXXUNQ11A13XVDdUA/UNQBHfV1xFfV0TE1HdEdEzEA31RcQ1D0QDXV1dU3V1TXQD1AD90R0Q3RHRA/VAAMDAwH1181ANcQcMFMxANdcRVf9wRcMEH0Q0XBfNRBPEEP1BFzEA3VA/RDRAwXDRT111FXzUQTxBMVfMxExEN0T1BD0ADMDBcwExV8MFwXDFVfwMR8VVzETEV/BVVXfdXVHTVD1DdQAN9ENEH0Q0UNXd1R0R00A901Q3VNUAD/fBMB0TEX0TENAN8ENENQ9AA3DRB0QzNQAPdwR0R3REN0TV0D0AAP9Q9QAADMzETEQMDMRMRMzMRMRMxEAD19fXUNQ11BDXXEVc8TEE8RVw8BV9FE8xExFHd1dU3VHRB90R0Q00APV3XVNA1dU9EA9d0DVDxDUA11DUP0AAA/XUDdUAP1AAAD11fXVDUNNFcF19dQ1DdUAP1DUTEE8Q1ANddfUMRDUNfUNQD1ADdXV1DdXRA91ADAwHDBT9d1QPQMQDdXQPUNQD0AAAMzxFxMQTPEExAA/3TQD1DQAzAR8DFXxVV8DAfFVVffVNAwQdwRcMHBR3wTAVX111DUNdRXM1EA9cQ1BD1dXVNddQPUAPV1D1QAD8MDFfBcFXDwXBFwcEd3RF1dU11DQD9XUN1QA/QAMxExEzEDEcwwXFcxExB8NFwTMQDdFU9H0QQ9dQ1D1Q0ADAzATET88QQD3VAADPMVFzUQ1AA8MMN0VcNEAP9dEPQAAAAP/8BVVV1dXdUdA9fUXEFfNRwXFVXfVPQANwR0QfdEdEPVDQA/V11TQPdU1QA90DQAAA/XXENQ3VNANfUENdQ1EPd0RNXUPQAAAAAAA",
      "tile": "H4sIAAAAAAAAA5OyqGDiYi1PLEkt0mhQkGJNzkksLlZi52LNT05NzBOSkmBWEuBscGxwlPrvyMDw37HBiYGfg1GIiYEBAETwsr06AAAA"
    }
  ],
  "maskLevel": "8",
  "tilejson": "2.0.0"
}
